{"type": "FeatureCollection", "features": [ {"type": "Feature", "properties": {"norad_id": 41469, "name": "IRNSS-1G", "group": "gnss", "lat": 4.464475230080688, "lon": -148.64836441180728, "alt_km": 35792.19377704416, "timestamp": "2025-12-18T23:35:49.301157+00:00", "meta": {"OBJECT_NAME": "IRNSS-1G", "OBJECT_ID": "2016-027A", "EPOCH": "2025-12-18T13:54:38.138976", "MEAN_MOTION": 1.00277341, "ECCENTRICITY": 0.00025986, "INCLINATION": 4.7484, "RA_OF_ASC_NODE": 101.9468, "ARG_OF_PERICENTER": 331.1426, "MEAN_ANOMALY": 352.4795, "EPHEMERIS_TYPE": 0, "CLASSIFICATION_TYPE": "U", "NORAD_CAT_ID": 41469, "ELEMENT_SET_NO": 999, "REV_AT_EPOCH": 3536, "BSTAR": 0, "MEAN_MOTION_DOT": -3.13e-06, "MEAN_MOTION_DDOT": 0}, "tle": {"line1": "1 41469U 16027A   25352.57960809 -.00000313  00000+0  00000+0 0  9997", "line2": "2 41469   4.7484 101.9468 0002598 331.1426 352.4795  1.00277341 35363"}}, "geometry": {"type": "Point", "coordinates": [-148.64836441180728, 4.464475230080688]}}, {"type": "Feature", "properties": {"norad_id": 41549, "name": "GSAT0211 (GALILEO 14)", "group": "gnss", "lat": 12.653942301732744, "lon": 37.6710885895097, "alt_km": 23231.082215037924, "timestamp": "2025-12-18T23:35:49.301176+00:00", "meta": {"OBJECT_NAME": "GSAT0211 (GALILEO 14)", "OBJECT_ID": "2016-030A", "EPOCH": "2025-12-14T00:32:28.498848", "MEAN_MOTION": 1.70473201, "ECCENTRICITY": 0.000407, "INCLINATION": 55.1518, "RA_OF_ASC_NODE": 226.7881, "ARG_OF_PERICENTER": 16.5595, "MEAN_ANOMALY": 343.5367, "EPHEMERIS_TYPE": 0, "CLASSIFICATION_TYPE": "U", "NORAD_CAT_ID": 41549, "ELEMENT_SET_NO": 999, "REV_AT_EPOCH": 5951, "BSTAR": 0, "MEAN_MOTION_DOT": 2.8e-07, "MEAN_MOTION_DDOT": 0}, "tle": {"line1": "1 41549U 16030A   25348.02255207  .00000028  00000+0  00000+0 0  9996", "line2": "2 41549  55.1518 226.7881 0004070  16.5595 343.5367  1.70473201 59512"}}, "geometry": {"type": "Point", "coordinates": [37.6710885895097, 12.653942301732744]}}, {"type": "Feature", "properties": {"norad_id": 41550, "name": "GSAT0210 (GALILEO 13)", "group": "gnss", "lat": 5.306868541895565, "lon": -129.62933109470896, "alt_km": 23223.59826872226, "timestamp": "2025-12-18T23:35:49.301195+00:00", "meta": {"OBJECT_NAME": "GSAT0210 (GALILEO 13)", "OBJECT_ID": "2016-030B", "EPOCH": "2025-12-17T05:06:34.590240", "MEAN_MOTION": 1.70473746, "ECCENTRICITY": 9.221e-05, "INCLINATION": 55.1502, "RA_OF_ASC_NODE": 226.6984, "ARG_OF_PERICENTER": 234.8094, "MEAN_ANOMALY": 125.2822, "EPHEMERIS_TYPE": 0, "CLASSIFICATION_TYPE": "U", "NORAD_CAT_ID": 41550, "ELEMENT_SET_NO": 999, "REV_AT_EPOCH": 5956, "BSTAR": 0, "MEAN_MOTION_DOT": 5.5e-07, "MEAN_MOTION_DDOT": 0}, "tle": {"line1": "1 41550U 16030B   25351.21290035  .00000055  00000+0  00000+0 0  9991", "line2": "2 41550  55.1502 226.6984 0000922 234.8094 125.2822  1.70473746 59561"}}, "geometry": {"type": "Point", "coordinates": [-129.62933109470896, 5.306868541895565]}}, {"type": "Feature", "properties": {"norad_id": 41586, "name": "BEIDOU-2 G7 (C03)", "group": "gnss", "lat": 1.4515441981144075, "lon": -167.69754266314956, "alt_km": 35796.91781587079, "timestamp": "2025-12-18T23:35:49.301217+00:00", "meta": {"OBJECT_NAME": "BEIDOU-2 G7 (C03)", "OBJECT_ID": "2016-037A", "EPOCH": "2025-12-18T15:53:28.851936", "MEAN_MOTION": 1.00272488, "ECCENTRICITY": 0.00051146, "INCLINATION": 1.7711, "RA_OF_ASC_NODE": 67.8361, "ARG_OF_PERICENTER": 3.2464, "MEAN_ANOMALY": 5.2624, "EPHEMERIS_TYPE": 0, "CLASSIFICATION_TYPE": "U", "NORAD_CAT_ID": 41586, "ELEMENT_SET_NO": 999, "REV_AT_EPOCH": 508, "BSTAR": 0, "MEAN_MOTION_DOT": -3.3e-06, "MEAN_MOTION_DDOT": 0}, "tle": {"line1": "1 41586U 16037A   25352.66213949 -.00000330  00000+0  00000+0 0  9993", "line2": "2 41586   1.7711  67.8361 0005114   3.2464   5.2624  1.00272488  5088"}}, "geometry": {"type": "Point", "coordinates": [-167.69754266314956, 1.4515441981144075]}}, {"type": "Feature", "properties": {"norad_id": 41589, "name": "EUTELSAT 117 WEST B (WAAS/PRN 131)", "group": "gnss", "lat": -0.005983580434260068, "lon": -35.204863971456035, "alt_km": 35785.181769877556, "timestamp": "2025-12-18T23:35:49.301240+00:00", "meta": {"OBJECT_NAME": "EUTELSAT 117 WEST B (WAAS/PRN 131)", "OBJECT_ID": "2016-038B", "EPOCH": "2025-12-18T14:08:49.387200", "MEAN_MOTION": 1.00271024, "ECCENTRICITY": 3.208e-05, "INCLINATION": 0.043, "RA_OF_ASC_NODE": 169.4138, "ARG_OF_PERICENTER": 119.9849, "MEAN_ANOMALY": 253.2688, "EPHEMERIS_TYPE": 0, "CLASSIFICATION_TYPE": "U", "NORAD_CAT_ID": 41589, "ELEMENT_SET_NO": 999, "REV_AT_EPOCH": 3485, "BSTAR": 0, "MEAN_MOTION_DOT": 1.4e-07, "MEAN_MOTION_DDOT": 0}, "tle": {"line1": "1 41589U 16038B   25352.58946050  .00000014  00000+0  00000+0 0  9992", "line2": "2 41589   0.0430 169.4138 0000320 119.9849 253.2688  1.00271024 34855"}}, "geometry": {"type": "Point", "coordinates": [-35.204863971456035, -0.005983580434260068]}}, {"type": "Feature", "properties": {"norad_id": 41859, "name": "GSAT0207 (GALILEO 15)", "group": "gnss", "lat": -12.910164008958708, "lon": -64.83498567431963, "alt_km": 23227.97034810816, "timestamp": "2025-12-18T23:35:49.301259+00:00", "meta": {"OBJECT_NAME": "GSAT0207 (GALILEO 15)", "OBJECT_ID": "2016-069A", "EPOCH": "2025-12-13T09:14:27.730752", "MEAN_MOTION": 1.70474447, "ECCENTRICITY": 0.00022423, "INCLINATION": 55.3826, "RA_OF_ASC_NODE": 106.2323, "ARG_OF_PERICENTER": 321.9482, "MEAN_ANOMALY": 38.0041, "EPHEMERIS_TYPE": 0, "CLASSIFICATION_TYPE": "U", "NORAD_CAT_ID": 41859, "ELEMENT_SET_NO": 999, "REV_AT_EPOCH": 5623, "BSTAR": 0, "MEAN_MOTION_DOT": 0, "MEAN_MOTION_DDOT": 0}, "tle": {"line1": "1 41859U 16069A   25347.38504318  .00000000  00000+0  00000+0 0  9990", "line2": "2 41859  55.3826 106.2323 0002242 321.9482  38.0041  1.70474447 56234"}}, "geometry": {"type": "Point", "coordinates": [-64.83498567431963, -12.910164008958708]}}, {"type": "Feature", "properties": {"norad_id": 41860, "name": "GSAT0212 (GALILEO 16)", "group": "gnss", "lat": -52.463709361648654, "lon": 42.18243580404978, "alt_km": 23228.484095586242, "timestamp": "2025-12-18T23:35:49.301280+00:00", "meta": {"OBJECT_NAME": "GSAT0212 (GALILEO 16)", "OBJECT_ID": "2016-069B", "EPOCH": "2025-12-18T12:25:48.697536", "MEAN_MOTION": 1.70474692, "ECCENTRICITY": 0.00020646, "INCLINATION": 55.3831, "RA_OF_ASC_NODE": 106.0857, "ARG_OF_PERICENTER": 21.766, "MEAN_ANOMALY": 338.2025, "EPHEMERIS_TYPE": 0, "CLASSIFICATION_TYPE": "U", "NORAD_CAT_ID": 41860, "ELEMENT_SET_NO": 999, "REV_AT_EPOCH": 5657, "BSTAR": 0, "MEAN_MOTION_DOT": -8e-08, "MEAN_MOTION_DDOT": 0}, "tle": {"line1": "1 41860U 16069B   25352.51792474 -.00000008  00000+0  00000+0 0  9994", "line2": "2 41860  55.3831 106.0857 0002064  21.7660 338.2025  1.70474692 56573"}}, "geometry": {"type": "Point", "coordinates": [42.18243580404978, -52.463709361648654]}}, {"type": "Feature", "properties": {"norad_id": 41861, "name": "GSAT0213 (GALILEO 17)", "group": "gnss", "lat": 45.46019421725055, "lon": 150.5766573324036, "alt_km": 23222.299275750443, "timestamp": "2025-12-18T23:35:49.301298+00:00", "meta": {"OBJECT_NAME": "GSAT0213 (GALILEO 17)", "OBJECT_ID": "2016-069C", "EPOCH": "2025-12-17T17:05:43.699776", "MEAN_MOTION": 1.70474994, "ECCENTRICITY": 0.000259, "INCLINATION": 55.385, "RA_OF_ASC_NODE": 106.1156, "ARG_OF_PERICENTER": 282.1972, "MEAN_ANOMALY": 77.7328, "EPHEMERIS_TYPE": 0, "CLASSIFICATION_TYPE": "U", "NORAD_CAT_ID": 41861, "ELEMENT_SET_NO": 999, "REV_AT_EPOCH": 5642, "BSTAR": 0, "MEAN_MOTION_DOT": -9e-08, "MEAN_MOTION_DDOT": 0}, "tle": {"line1": "1 41861U 16069C   25351.71231134 -.00000009  00000+0  00000+0 0  9998", "line2": "2 41861  55.3850 106.1156 0002590 282.1972  77.7328  1.70474994 56421"}}, "geometry": {"type": "Point", "coordinates": [150.5766573324036, 45.46019421725055]}}, {"type": "Feature", "properties": {"norad_id": 41862, "name": "GSAT0214 (GALILEO 18)", "group": "gnss", "lat": -24.012611780441965, "lon": 88.1652937106667, "alt_km": 23221.84255424932, "timestamp": "2025-12-18T23:35:49.301315+00:00", "meta": {"OBJECT_NAME": "GSAT0214 (GALILEO 18)", "OBJECT_ID": "2016-069D", "EPOCH": "2025-12-17T20:35:58.649280", "MEAN_MOTION": 1.70474854, "ECCENTRICITY": 0.00015422, "INCLINATION": 55.383, "RA_OF_ASC_NODE": 106.1044, "ARG_OF_PERICENTER": 289.1766, "MEAN_ANOMALY": 70.7658, "EPHEMERIS_TYPE": 0, "CLASSIFICATION_TYPE": "U", "NORAD_CAT_ID": 41862, "ELEMENT_SET_NO": 999, "REV_AT_EPOCH": 5655, "BSTAR": 0, "MEAN_MOTION_DOT": -9e-08, "MEAN_MOTION_DDOT": 0}, "tle": {"line1": "1 41862U 16069D   25351.85831770 -.00000009  00000+0  00000+0 0  9996", "line2": "2 41862  55.3830 106.1044 0001542 289.1766  70.7658  1.70474854 56558"}}, "geometry": {"type": "Point", "coordinates": [88.1652937106667, -24.012611780441965]}}, {"type": "Feature", "properties": {"norad_id": 42709, "name": "SES-15 (WAAS/PRN 133)", "group": "gnss", "lat": -0.02508761995934795, "lon": -47.38027894195558, "alt_km": 35788.140046259374, "timestamp": "2025-12-18T23:35:49.301333+00:00", "meta": {"OBJECT_NAME": "SES-15 (WAAS/PRN 133)", "OBJECT_ID": "2017-026A", "EPOCH": "2025-12-18T14:23:35.367360", "MEAN_MOTION": 1.00271967, "ECCENTRICITY": 7.217e-05, "INCLINATION": 0.0179, "RA_OF_ASC_NODE": 345.1001, "ARG_OF_PERICENTER": 192.5534, "MEAN_ANOMALY": 356.5354, "EPHEMERIS_TYPE": 0, "CLASSIFICATION_TYPE": "U", "NORAD_CAT_ID": 42709, "ELEMENT_SET_NO": 999, "REV_AT_EPOCH": 562, "BSTAR": 0, "MEAN_MOTION_DOT": 8.5e-07, "MEAN_MOTION_DDOT": 0}, "tle": {"line1": "1 42709U 17026A   25352.59971490  .00000085  00000+0  00000+0 0  9990", "line2": "2 42709   0.0179 345.1001 0000721 192.5534 356.5354  1.00271967  5621"}}, "geometry": {"type": "Point", "coordinates": [-47.38027894195558, -0.02508761995934795]}}]}